KUIPER-00027            
1 63740U 25088S   25334.85666257  .00001459  00000+0  22091-3 0  9990
2 63740  51.8997 172.5367 0004868 180.9960 179.0994 14.79829742 32985
KUIPER-00028            
1 63741U 25088T   25334.80929538  .00001582  00000+0  23842-3 0  9992
2 63741  51.8984 170.7528 0004030 200.3821 159.6980 14.79591508 33419
KUIPER-00029            
1 63742U 25088U   25334.83864598 -.00030175  00000+0 -39389-2 0  9994
2 63742  51.9017 168.4322 0009821 152.9112 207.2365 14.79978196 32971
KUIPER-00030            
1 63743U 25088V   25334.78045808 -.00000115  00000+0  14536-4 0  9993
2 63743  51.8982 187.9144 0016382  99.9634 260.3179 14.79924271 32988
KUIPER-00031            
1 63744U 25088W   25334.92993489  .00000855  00000+0  14120-3 0  9995
2 63744  51.8995 173.3236 0005499 138.9865 221.1512 14.79968383 32912
KUIPER-00032            
1 63745U 25088X   25334.84056815  .00014242  00000+0  44947-3 0  9995
2 63745  51.8710 140.5374 0005247 139.7060 220.4315 15.33090607 34364
KUIPER-00033            
1 63746U 25088Y   25334.35746168  .00006941  00000+0  93800-3 0  9998
2 63746  51.8991 205.8423 0003836 184.4688 175.6241 14.79959767 32896
KUIPER-00034            
1 63747U 25088Z   25335.00002315  .00046550  00000+0  60979-2 0  9991
2 63747  51.8993 165.5160 0002800 126.8269 202.9031 14.79896645  5665
